[{"OBJECT_NAME":"ENMAP","OBJECT_ID":"2022-033C","EPOCH":"2026-03-09T22:00:43.226208","MEAN_MOTION":14.74967625,"ECCENTRICITY":0.00010636,"INCLINATION":97.9792,"RA_OF_ASC_NODE":152.5765,"ARG_OF_PERICENTER":93.4267,"MEAN_ANOMALY":266.7063,"EPHEMERIS_TYPE":0,"CLASSIFICATION_TYPE":"U","NORAD_CAT_ID":52159,"ELEMENT_SET_NO":999,"REV_AT_EPOCH":21202,"BSTAR":5.7736752e-5,"MEAN_MOTION_DOT":3.38e-6,"MEAN_MOTION_DDOT":0},{"OBJECT_NAME":"PEGASUS DEB","OBJECT_ID":"1994-029JY","EPOCH":"2026-03-09T23:11:54.295296","MEAN_MOTION":14.90653362,"ECCENTRICITY":0.0070631,"INCLINATION":82.0876,"RA_OF_ASC_NODE":46.3317,"ARG_OF_PERICENTER":279.2549,"MEAN_ANOMALY":134.3773,"EPHEMERIS_TYPE":0,"CLASSIFICATION_TYPE":"U","NORAD_CAT_ID":24197,"ELEMENT_SET_NO":999,"REV_AT_EPOCH":68196,"BSTAR":0.0004359638,"MEAN_MOTION_DOT":4.503e-5,"MEAN_MOTION_DDOT":0}]
